[
    {
        "CCSDS_OMM_VERS": "3.0",
        "COMMENT": "GENERATED VIA SPACE-TRACK.ORG API",
        "CREATION_DATE": "2025-04-14T03:05:54",
        "ORIGINATOR": "18 SPCS",
        "OBJECT_NAME": "BEIDOU 3M11",
        "OBJECT_ID": "2018-067A",
        "CENTER_NAME": "EARTH",
        "REF_FRAME": "TEME",
        "TIME_SYSTEM": "UTC",
        "MEAN_ELEMENT_THEORY": "SGP4",
        "EPOCH": "2025-04-12T19:19:15.143232",
        "MEAN_MOTION": "1.86227980",
        "ECCENTRICITY": "0.00074730",
        "INCLINATION": "54.1952",
        "RA_OF_ASC_NODE": "195.6355",
        "ARG_OF_PERICENTER": "30.9892",
        "MEAN_ANOMALY": "329.0889",
        "EPHEMERIS_TYPE": "0",
        "CLASSIFICATION_TYPE": "U",
        "NORAD_CAT_ID": "43602",
        "ELEMENT_SET_NO": "999",
        "REV_AT_EPOCH": "4510",
        "BSTAR": "0.00000000000000",
        "MEAN_MOTION_DOT": "0.00000011",
        "MEAN_MOTION_DDOT": "0.0000000000000",
        "SEMIMAJOR_AXIS": "27906.490",
        "PERIOD": "773.246",
        "APOAPSIS": "21549.210",
        "PERIAPSIS": "21507.501",
        "OBJECT_TYPE": "PAYLOAD",
        "RCS_SIZE": "LARGE",
        "COUNTRY_CODE": "PRC",
        "LAUNCH_DATE": "2018-08-24",
        "SITE": "XSC",
        "DECAY_DATE": null,
        "FILE": "4701263",
        "GP_ID": "285538488",
        "TLE_LINE0": "0 BEIDOU 3M11",
        "TLE_LINE1": "1 43602U 18067A   25102.80503638  .00000011  00000-0  00000-0 0  9992",
        "TLE_LINE2": "2 43602  54.1952 195.6355 0007473  30.9892 329.0889  1.86227980 45101"
    }
]